[{"OBJECT_NAME":"STARLINK-34296","OBJECT_ID":"2025-117P","EPOCH":"2026-03-09T22:12:49.622112","MEAN_MOTION":15.30217621,"ECCENTRICITY":0.00014866,"INCLINATION":53.1609,"RA_OF_ASC_NODE":38.3749,"ARG_OF_PERICENTER":82.7885,"MEAN_ANOMALY":277.3285,"EPHEMERIS_TYPE":0,"CLASSIFICATION_TYPE":"U","NORAD_CAT_ID":64216,"ELEMENT_SET_NO":999,"REV_AT_EPOCH":4459,"BSTAR":0.0012917003,"MEAN_MOTION_DOT":0.00038115,"MEAN_MOTION_DDOT":0},{"OBJECT_NAME":"CZ-6A DEB","OBJECT_ID":"2024-140JQ","EPOCH":"2026-03-09T16:05:49.477056","MEAN_MOTION":15.15394204,"ECCENTRICITY":0.00800164,"INCLINATION":89.0638,"RA_OF_ASC_NODE":284.0631,"ARG_OF_PERICENTER":105.771,"MEAN_ANOMALY":255.2376,"EPHEMERIS_TYPE":0,"CLASSIFICATION_TYPE":"U","NORAD_CAT_ID":60861,"ELEMENT_SET_NO":999,"REV_AT_EPOCH":8511,"BSTAR":0.0025246282,"MEAN_MOTION_DOT":0.00051962,"MEAN_MOTION_DDOT":0}]
